[{"OBJECT_NAME":"ZACUBE-1 (TSHEPISOSAT)","OBJECT_ID":"2013-066B","EPOCH":"2026-03-09T22:19:27.469056","MEAN_MOTION":15.00329659,"ECCENTRICITY":0.00425262,"INCLINATION":97.8171,"RA_OF_ASC_NODE":30.7553,"ARG_OF_PERICENTER":219.1599,"MEAN_ANOMALY":140.6545,"EPHEMERIS_TYPE":0,"CLASSIFICATION_TYPE":"U","NORAD_CAT_ID":39417,"ELEMENT_SET_NO":999,"REV_AT_EPOCH":66584,"BSTAR":0.00042975473,"MEAN_MOTION_DOT":5.431e-5,"MEAN_MOTION_DDOT":0},{"OBJECT_NAME":"STARLINK-4024","OBJECT_ID":"2022-052B","EPOCH":"2026-03-09T19:32:15.105408","MEAN_MOTION":15.08830158,"ECCENTRICITY":0.00012666,"INCLINATION":53.2165,"RA_OF_ASC_NODE":278.6679,"ARG_OF_PERICENTER":89.5333,"MEAN_ANOMALY":270.5804,"EPHEMERIS_TYPE":0,"CLASSIFICATION_TYPE":"U","NORAD_CAT_ID":52599,"ELEMENT_SET_NO":999,"REV_AT_EPOCH":21167,"BSTAR":9.2430891e-5,"MEAN_MOTION_DOT":1.183e-5,"MEAN_MOTION_DDOT":0}]
